NORAD_CAT_ID,OBJECT_NAME,OBJECT_TYPE,EPOCH,MEAN_MOTION,ECCENTRICITY,INCLINATION,RA_OF_ASC_NODE,ARG_OF_PERICENTER,MEAN_ANOMALY,BSTAR,MEAN_MOTION_DOT,MEAN_MOTION_DDOT,TLE_LINE0,TLE_LINE1,TLE_LINE2,SEMIMAJOR_AXIS,PERIOD,APOGEE,PERIGEE,DECAYED
54090.0,STARLINK-5177,PAYLOAD,2024-03-02 03:52:23,15.08837077,0.0001305,53.2178,44.9192,106.057,254.0566,8.311e-05,1.035e-05,0.0,0 STARLINK-5177,1 54090U 22136AR  24062.16137767  .00001035  00000-0  83110-4 0  9990,2 54090  53.2178  44.9192 0001305 106.0570 254.0566 15.08837077 76112,6917.889,95.438,540.657,538.852,0.0
54090.0,STARLINK-5177,PAYLOAD,2024-03-03 05:18:33,15.08840831,0.0001357,53.2182,40.1658,90.0385,270.0763,-4.4467e-06,-3.59e-06,0.0,0 STARLINK-5177,1 54090U 22136AR  24063.22122033 -.00000359  00000-0 -44467-5 0  9991,2 54090  53.2182  40.1658 0001357  90.0385 270.0763 15.08840831 76271,6917.878,95.438,540.682,538.804,0.0
54090.0,STARLINK-5177,PAYLOAD,2024-03-03 08:29:19,15.0884174,0.0001371,53.2179,39.569,89.1375,270.9775,1.3902e-05,-6.7e-07,0.0,0 STARLINK-5177,1 54090U 22136AR  24063.35369899 -.00000067  00000-0  13902-4 0  9992,2 54090  53.2179  39.5690 0001371  89.1375 270.9775 15.08841740 75821,6917.875,95.437,540.689,538.792,0.0
54090.0,STARLINK-5177,PAYLOAD,2024-03-04 05:09:19,15.08855777,0.0001304,53.2181,35.7031,85.6358,274.4783,0.00018927,2.727e-05,0.0,0 STARLINK-5177,1 54090U 22136AR  24064.21480495  .00002727  00000-0  18927-3 0  9999,2 54090  53.2181  35.7031 0001304  85.6358 274.4783 15.08855777 76429,6917.832,95.437,540.599,538.795,0.0
54090.0,STARLINK-5177,PAYLOAD,2024-03-04 14:41:38,15.08845028,0.0001183,53.2176,33.918,72.576,287.5361,0.00010671,1.411e-05,0.0,0 STARLINK-5177,1 54090U 22136AR  24064.61225159  .00001411  00000-0  10671-3 0  9994,2 54090  53.2176  33.9180 0001183  72.5760 287.5361 15.08845028 76486,6917.865,95.437,540.548,538.912,0.0
54090.0,STARLINK-5177,PAYLOAD,2024-03-05 03:24:45,15.0882048,0.0001493,53.2181,31.5386,71.5113,288.6042,-0.00011102,-2.053e-05,0.0,0 STARLINK-5177,1 54090U 22136AR  24065.14219878 -.00002053  00000-0 -11102-3 0  9999,2 54090  53.2181  31.5386 0001493  71.5113 288.6042 15.08820480 76561,6917.94,95.439,540.838,538.772,0.0
54090.0,STARLINK-5177,PAYLOAD,2024-03-05 20:53:59,15.08836162,0.000149,53.221,28.2681,81.8768,278.2394,4.9756e-05,5.04e-06,0.0,0 STARLINK-5177,1 54090U 22136AR  24065.87082822  .00000504  00000-0  49756-4 0  9990,2 54090  53.2210  28.2681 0001490  81.8768 278.2394 15.08836162 76673,6917.892,95.438,540.788,538.726,0.0
54090.0,STARLINK-5177,PAYLOAD,2024-03-06 03:15:31,15.08853669,0.0001204,53.217,27.0821,91.7699,268.3431,3.1569e-05,2.15e-06,0.0,0 STARLINK-5177,1 54090U 22136AR  24066.13577695  .00000215  00000-0  31569-4 0  9999,2 54090  53.2170  27.0821 0001204  91.7699 268.3431 15.08853669 76715,6917.839,95.437,540.537,538.871,0.0
54090.0,STARLINK-5177,PAYLOAD,2024-03-06 06:26:16,15.08859146,0.0001383,53.2183,26.4874,90.0667,270.0484,8.2022e-05,1.018e-05,0.0,0 STARLINK-5177,1 54090U 22136AR  24066.26825210  .00001018  00000-0  82022-4 0  9994,2 54090  53.2183  26.4874 0001383  90.0667 270.0484 15.08859146 76269,6917.822,95.436,540.644,538.73,0.0
54090.0,STARLINK-5177,PAYLOAD,2024-03-07 03:06:19,15.08828902,0.0001246,53.2199,22.6194,81.1956,278.9178,0.00025899,3.835e-05,0.0,0 STARLINK-5177,1 54090U 22136AR  24067.12938949  .00003835  00000-0  25899-3 0  9991,2 54090  53.2199  22.6194 0001246  81.1956 278.9178 15.08828902 76868,6917.914,95.438,540.641,538.917,0.0
54090.0,STARLINK-5177,PAYLOAD,2024-03-07 14:14:01,15.08836555,0.0001485,53.2186,20.5384,86.1793,273.9369,5.3276e-05,5.6e-06,0.0,0 STARLINK-5177,1 54090U 22136AR  24067.59306826  .00000560  00000-0  53276-4 0  9998,2 54090  53.2186  20.5384 0001485  86.1793 273.9369 15.08836555 76467,6917.891,95.438,540.783,538.729,0.0
54090.0,STARLINK-5177,PAYLOAD,2024-03-08 06:07:52,15.08845103,0.0001547,53.2187,17.5632,94.0359,266.081,6.9324e-06,-1.78e-06,0.0,0 STARLINK-5177,1 54090U 22136AR  24068.25546451 -.00000178  00000-0  69324-5 0  9990,2 54090  53.2187  17.5632 0001547  94.0359 266.0810 15.08845103 77032,6917.865,95.437,540.8,538.66,0.0
54090.0,STARLINK-5177,PAYLOAD,2024-03-08 14:04:48,15.08837683,0.0001738,53.2202,16.0747,96.4276,263.6914,2.0966e-05,4.6e-07,0.0,0 STARLINK-5177,1 54090U 22136AR  24068.58667058  .00000046  00000-0  20966-4 0  9994,2 54090  53.2202  16.0747 0001738  96.4276 263.6914 15.08837683 76612,6917.887,95.438,540.955,538.55,0.0
54090.0,STARLINK-5177,PAYLOAD,2024-03-09 05:58:39,15.08850328,0.0001494,53.2184,13.1032,98.7307,261.3855,0.00023781,3.5e-05,0.0,0 STARLINK-5177,1 54090U 22136AR  24069.24906437  .00003500  00000-0  23781-3 0  9990,2 54090  53.2184  13.1032 0001494  98.7307 261.3855 15.08850328 77188,6917.849,95.437,540.747,538.68,0.0
54090.0,STARLINK-5177,PAYLOAD,2024-03-10 02:38:39,15.08847478,0.0001511,53.2178,9.2353,99.5637,260.5526,0.00019979,2.894e-05,0.0,0 STARLINK-5177,1 54090U 22136AR  24070.11018399  .00002894  00000-0  19979-3 0  9998,2 54090  53.2178   9.2353 0001511  99.5637 260.5526 15.08847478 77311,6917.858,95.437,540.768,538.677,0.0
54090.0,STARLINK-5177,PAYLOAD,2024-03-10 05:49:26,15.08849305,0.0001471,53.2179,8.6408,94.2563,265.8597,0.00013088,1.796e-05,0.0,0 STARLINK-5177,1 54090U 22136AR  24070.24266229  .00001796  00000-0  13088-3 0  9994,2 54090  53.2179   8.6408 0001471  94.2563 265.8597 15.08849305 76867,6917.852,95.437,540.735,538.699,0.0
54090.0,STARLINK-5177,PAYLOAD,2024-03-11 02:29:27,15.08835816,0.0001179,53.2173,4.7783,81.9531,278.1595,-1.3785e-05,-5.07e-06,0.0,0 STARLINK-5177,1 54090U 22136AR  24071.10379036 -.00000507  00000-0 -13785-4 0  9997,2 54090  53.2173   4.7783 0001179  81.9531 278.1595 15.08835816 77461,6917.893,95.438,540.574,538.943,0.0
54090.0,STARLINK-5177,PAYLOAD,2024-03-11 05:40:13,15.08839405,0.0001331,53.2173,4.1833,83.977,276.1373,-5.592e-05,-1.178e-05,0.0,0 STARLINK-5177,1 54090U 22136AR  24071.23626818 -.00001178  00000-0 -55920-4 0  9996,2 54090  53.2173   4.1833 0001331  83.9770 276.1373 15.08839405 77019,6917.882,95.438,540.668,538.826,0.0
54090.0,STARLINK-5177,PAYLOAD,2024-03-12 05:31:00,15.0884225,0.0001301,53.2168,359.7226,82.5685,277.5455,8.1497e-05,1.009e-05,0.0,0 STARLINK-5177,1 54090U 22136AR  24072.22986960  .00001009  00000-0  81497-4 0  9992,2 54090  53.2168 359.7226 0001301  82.5685 277.5455 15.08842250 77631,6917.874,95.437,540.639,538.838,0.0
54090.0,STARLINK-5177,PAYLOAD,2024-03-13 11:43:20,15.08839876,0.0001536,53.2178,354.0721,82.086,278.0307,5.0039e-05,5.08e-06,0.0,0 STARLINK-5177,1 54090U 22136AR  24073.48843168  .00000508  00000-0  50039-4 0  9994,2 54090  53.2178 354.0721 0001536  82.0860 278.0307 15.08839876 77823,6917.881,95.438,540.808,538.683,0.0
54090.0,STARLINK-5177,PAYLOAD,2024-03-13 22:51:02,15.08839113,0.0001684,53.2185,351.9893,83.6331,276.4853,3.4615e-05,2.63e-06,0.0,0 STARLINK-5177,1 54090U 22136AR  24073.95211450  .00000263  00000-0  34615-4 0  9999,2 54090  53.2185 351.9893 0001684  83.6331 276.4853 15.08839113 77429,6917.883,95.438,540.913,538.583,0.0
54090.0,STARLINK-5177,PAYLOAD,2024-03-14 03:37:12,15.08840724,0.0001756,53.2189,351.098,85.1072,275.012,6.8795e-05,8.07e-06,0.0,0 STARLINK-5177,1 54090U 22136AR  24074.15083419  .00000807  00000-0  68795-4 0  9994,2 54090  53.2189 351.0980 0001756  85.1072 275.0120 15.08840724 77455,6917.878,95.438,540.958,538.528,0.0
54090.0,STARLINK-5177,PAYLOAD,2024-03-15 00:17:12,15.08846553,0.000155,53.2179,347.2342,81.5189,278.5979,4.297e-05,3.96e-06,0.0,0 STARLINK-5177,1 54090U 22136AR  24075.01195155  .00000396  00000-0  42970-4 0  9991,2 54090  53.2179 347.2342 0001550  81.5189 278.5979 15.08846553 78057,6917.86,95.437,540.798,538.653,0.0
54090.0,STARLINK-5177,PAYLOAD,2024-03-15 06:38:44,15.08857169,0.000129,53.2176,346.0413,97.2606,262.8533,0.00020494,2.977e-05,0.0,0 STARLINK-5177,1 54090U 22136AR  24075.27690322  .00002977  00000-0  20494-3 0  9998,2 54090  53.2176 346.0413 0001290  97.2606 262.8533 15.08857169 78090,6917.828,95.436,540.585,538.801,0.0
54090.0,STARLINK-5177,PAYLOAD,2024-03-15 22:32:35,15.08854579,0.0001331,53.2178,343.0669,91.7036,268.4108,0.00030763,4.613e-05,0.0,0 STARLINK-5177,1 54090U 22136AR  24075.93930180  .00004613  00000-0  30763-3 0  9999,2 54090  53.2178 343.0669 0001331  91.7036 268.4108 15.08854579 77725,6917.836,95.437,540.622,538.78,0.0
54090.0,STARLINK-5177,PAYLOAD,2024-03-16 03:18:45,15.08835839,0.0001452,53.2165,342.1794,85.2187,274.8971,-0.00013479,-2.432e-05,0.0,0 STARLINK-5177,1 54090U 22136AR  24076.13803011 -.00002432  00000-0 -13479-3 0  9998,2 54090  53.2165 342.1794 0001452  85.2187 274.8971 15.08835839 78222,6917.893,95.438,540.763,538.754,0.0
54090.0,STARLINK-5177,PAYLOAD,2024-03-16 22:23:23,15.08834711,0.0001475,53.2173,338.6093,73.1892,286.9261,-0.00015279,-2.718e-05,0.0,0 STARLINK-5177,1 54090U 22136AR  24076.93291426 -.00002718  00000-0 -15279-3 0  9994,2 54090  53.2173 338.6093 0001475  73.1892 286.9261 15.08834711 77871,6917.897,95.438,540.782,538.741,0.0
54090.0,STARLINK-5177,PAYLOAD,2024-03-17 03:09:33,15.08837733,0.0001449,53.2175,337.716,75.8003,284.315,-8.2265e-05,-1.597e-05,0.0,0 STARLINK-5177,1 54090U 22136AR  24077.13163262 -.00001597  00000-0 -82265-4 0  9997,2 54090  53.2175 337.7160 0001449  75.8003 284.3150 15.08837733 77902,6917.887,95.438,540.755,538.75,0.0
54090.0,STARLINK-5177,PAYLOAD,2024-03-17 20:38:47,15.08843923,0.0001367,53.2179,334.4455,89.2888,270.8261,-9.6539e-05,-1.824e-05,0.0,0 STARLINK-5177,1 54090U 22136AR  24077.86027149 -.00001824  00000-0 -96539-4 0  9992,2 54090  53.2179 334.4455 0001367  89.2888 270.8261 15.08843923 78481,6917.868,95.437,540.679,538.788,0.0
54090.0,STARLINK-5177,PAYLOAD,2024-03-17 22:14:10,15.08849575,0.0001406,53.2178,334.1481,83.0349,277.0803,-0.00021443,-3.7e-05,0.0,0 STARLINK-5177,1 54090U 22136AR  24077.92650902 -.00003700  00000-0 -21443-3 0  9994,2 54090  53.2178 334.1481 0001406  83.0349 277.0803 15.08849575 78024,6917.851,95.437,540.689,538.743,0.0
